GLOBALSTAR M063         
1 26081U 00008A   24271.85241435 -.00000034  00000+0  71667-3 0  9990
2 26081  51.9938  82.4596 0005023 158.5998 341.6022 11.86159546126444
GLOBALSTAR M062         
1 26082U 00008B   24271.58629094 -.00000067  00000+0  22587-3 0  9995
2 26082  51.9834 148.0030 0006278 275.4558 114.5022 12.43446807463956
GLOBALSTAR M060         
1 26083U 00008C   24271.81278425 -.00000107  00000+0 -15489-3 0  9999
2 26083  52.0017  70.2213 0002588 322.1522 177.0759 12.17644561120401
GLOBALSTAR M064         
1 26084U 00008D   24271.49968032 -.00000087  00000+0 -49182-4 0  9999
2 26084  52.0020 185.3168 0001034 297.8408  62.2320 11.88523087135860
GLOBALSTAR M065         
1 31571U 07020A   24271.85631815  .00000029  00000+0  74412-3 0  9990
2 31571  51.9895 304.7057 0010284  85.8035  85.2025 12.61978979800285
GLOBALSTAR M069         
1 31573U 07020C   24271.72955244 -.00000054  00000+0  28633-3 0  9996
2 31573  51.9936 261.2206 0000422 327.5282 203.8299 12.58765845801395
GLOBALSTAR M072         
1 31574U 07020D   24271.74548458 -.00000081  00000+0  12929-3 0  9995
2 31574  52.0109 356.7722 0000734 133.8729  44.5878 12.62264570799677
GLOBALSTAR M071         
1 31576U 07020F   24271.77387274 -.00000056  00000+0  26765-3 0  9992
2 31576  52.0054 265.8990 0000742 285.7203 244.7668 12.62257881462594
